NORAD_CAT_ID,OBJECT_NAME,OBJECT_TYPE,EPOCH,MEAN_MOTION,ECCENTRICITY,INCLINATION,RA_OF_ASC_NODE,ARG_OF_PERICENTER,MEAN_ANOMALY,BSTAR,MEAN_MOTION_DOT,MEAN_MOTION_DDOT,TLE_LINE0,TLE_LINE1,TLE_LINE2,SEMIMAJOR_AXIS,PERIOD,APOGEE,PERIGEE,DECAYED
52543.0,STARLINK-3926,PAYLOAD,2024-06-27 06:53:31,15.08844516,0.0001391,53.2173,34.2179,89.7906,270.3246,0.00011444,1.534e-05,0.0,0 STARLINK-3926,1 52543U 22051L   24179.28717154  .00001534  00000-0  11444-3 0  9997,2 52543  53.2173  34.2179 0001391  89.7906 270.3246 15.08844516117859,6917.867,95.437,540.694,538.769,0.0
52543.0,STARLINK-3926,PAYLOAD,2024-06-27 21:12:00,15.08834212,0.0001452,53.219,31.5444,100.7838,259.3317,-6.8939e-05,-1.385e-05,0.0,0 STARLINK-3926,1 52543U 22051L   24179.88334181 -.00001385  00000-0 -68939-4 0  9996,2 52543  53.2190  31.5444 0001452 100.7838 259.3317 15.08834212117947,6917.898,95.438,540.768,538.759,0.0
52543.0,STARLINK-3926,PAYLOAD,2024-06-28 06:44:18,15.08845599,0.0001181,53.2178,29.7603,97.878,262.2346,0.00011493,1.542e-05,0.0,0 STARLINK-3926,1 52543U 22051L   24180.28077277  .00001542  00000-0  11493-3 0  9997,2 52543  53.2178  29.7603 0001181  97.8780 262.2346 15.08845599118003,6917.863,95.437,540.545,538.911,0.0
52543.0,STARLINK-3926,PAYLOAD,2024-06-28 21:02:46,15.08849345,0.0001277,53.2177,27.0859,102.2976,257.8159,0.00043344,6.619e-05,0.0,0 STARLINK-3926,1 52543U 22051L   24180.87693002  .00006619  00000-0  43344-3 0  9992,2 52543  53.2177  27.0859 0001277 102.2976 257.8159 15.08849345118027,6917.852,95.437,540.6,538.833,0.0
52543.0,STARLINK-3926,PAYLOAD,2024-06-29 06:35:05,15.08850242,0.0001243,53.2177,25.2986,93.8285,266.285,0.00038236,5.804e-05,0.0,0 STARLINK-3926,1 52543U 22051L   24181.27436814  .00005804  00000-0  38236-3 0  9992,2 52543  53.2177  25.2986 0001243  93.8285 266.2850 15.08850242118085,6917.849,95.437,540.574,538.854,0.0
52543.0,STARLINK-3926,PAYLOAD,2024-06-29 19:18:12,15.08818213,0.0001332,53.2171,22.9242,122.5173,237.5948,-0.00024233,-4.14e-05,0.0,0 STARLINK-3926,1 52543U 22051L   24181.80430824 -.00004140  00000-0 -24233-3 0  9992,2 52543  53.2171  22.9242 0001332 122.5173 237.5948 15.08818213118231,6917.947,95.439,540.733,538.891,0.0
52543.0,STARLINK-3926,PAYLOAD,2024-06-29 22:28:58,15.08823288,0.000133,53.2179,22.3238,99.2235,260.8907,-0.00014104,-2.531e-05,0.0,0 STARLINK-3926,1 52543U 22051L   24181.93678798 -.00002531  00000-0 -14104-3 0  9998,2 52543  53.2179  22.3238 0001330  99.2235 260.8907 15.08823288118181,6917.931,95.439,540.717,538.876,0.0
52543.0,STARLINK-3926,PAYLOAD,2024-06-30 00:04:21,15.08824704,0.0001392,53.218,22.0244,98.5186,261.5964,-0.00011549,-2.125e-05,0.0,0 STARLINK-3926,1 52543U 22051L   24182.00302953 -.00002125  00000-0 -11549-3 0  9993,2 52543  53.2180  22.0244 0001392  98.5186 261.5964 15.08824704118198,6917.927,95.439,540.755,538.829,0.0
52543.0,STARLINK-3926,PAYLOAD,2024-06-30 20:44:22,15.08844113,0.0001185,53.2173,18.16,97.3027,262.81,0.00090572,0.00014158,0.0,0 STARLINK-3926,1 52543U 22051L   24182.86414759  .00014158  00000-0  90572-3 0  9995,2 52543  53.2173  18.1600 0001185  97.3027 262.8100 15.08844113118397,6917.868,95.437,540.553,538.913,0.0
52543.0,STARLINK-3926,PAYLOAD,2024-06-30 22:19:45,15.08852773,0.0001123,53.2171,17.8624,101.9765,258.1353,0.0012541,0.00019734,0.0,0 STARLINK-3926,1 52543U 22051L   24182.93038690  .00019734  00000-0  12541-2 0  9993,2 52543  53.2171  17.8624 0001123 101.9765 258.1353 15.08852773118333,6917.841,95.437,540.483,538.929,0.0
52543.0,STARLINK-3926,PAYLOAD,2024-07-01 12:38:13,15.08874753,0.0003503,53.2157,15.1895,76.9728,283.1655,0.0016444,0.00026006,0.0,0 STARLINK-3926,1 52543U 22051L   24183.52654768  .00026006  00000-0  16444-2 0  9995,2 52543  53.2157  15.1895 0003503  76.9728 283.1655 15.08874753118427,6917.774,95.435,542.062,537.216,0.0
52543.0,STARLINK-3926,PAYLOAD,2024-07-01 18:59:45,15.08846847,9.78e-05,53.2166,13.9975,87.1861,272.9243,0.0010022,0.00015701,0.0,0 STARLINK-3926,1 52543U 22051L   24183.79150396  .00015701  00000-0  10022-2 0  9998,2 52543  53.2166  13.9975 0000978  87.1861 272.9243 15.08846847118531,6917.859,95.437,540.401,539.048,0.0
52543.0,STARLINK-3926,PAYLOAD,2024-07-01 22:10:32,15.08848246,0.0001007,53.2164,13.4027,82.7503,277.3603,0.0013556,0.00021357,0.0,0 STARLINK-3926,1 52543U 22051L   24183.92398341  .00021357  00000-0  13556-2 0  9996,2 52543  53.2164  13.4027 0001007  82.7503 277.3603 15.08848246118488,6917.855,95.437,540.417,539.024,0.0
52543.0,STARLINK-3926,PAYLOAD,2024-07-02 06:07:27,15.08855682,0.0001042,53.2161,11.9154,84.2903,275.8208,0.0010813,0.0001697,0.0,0 STARLINK-3926,1 52543U 22051L   24184.25518104  .00016970  00000-0  10813-2 0  9992,2 52543  53.2161  11.9154 0001042  84.2903 275.8208 15.08855682118531,6917.832,95.437,540.418,538.977,0.0
52543.0,STARLINK-3926,PAYLOAD,2024-07-02 18:50:33,15.08841069,9.81e-05,53.2176,9.536,98.9388,261.1716,0.00091792,0.00014351,0.0,0 STARLINK-3926,1 52543U 22051L   24184.78510467  .00014351  00000-0  91792-3 0  9991,2 52543  53.2176   9.5360 0000981  98.9388 261.1716 15.08841069118681,6917.877,95.437,540.421,539.063,0.0
52543.0,STARLINK-3926,PAYLOAD,2024-07-02 22:01:19,15.08847594,0.0001172,53.2175,8.9401,102.3213,257.791,0.0014643,0.00023098,0.0,0 STARLINK-3926,1 52543U 22051L   24184.91758397  .00023098  00000-0  14643-2 0  9999,2 52543  53.2175   8.9401 0001172 102.3213 257.7910 15.08847594118630,6917.857,95.437,540.533,538.911,0.0
52543.0,STARLINK-3926,PAYLOAD,2024-07-03 12:19:47,15.08843275,0.0001942,53.2164,6.2627,109.0631,251.0571,0.00048425,7.428e-05,0.0,0 STARLINK-3926,1 52543U 22051L   24185.51374472  .00007428  00000-0  48425-3 0  9999,2 52543  53.2164   6.2627 0001942 109.0631 251.0571 15.08843275118791,6917.87,95.437,541.079,538.392,0.0
52543.0,STARLINK-3926,PAYLOAD,2024-07-03 18:41:20,15.08840451,0.0001175,53.2193,5.0777,89.9219,270.1908,0.00014468,2.016e-05,0.0,0 STARLINK-3926,1 52543U 22051L   24185.77870685  .00002016  00000-0  14468-3 0  9992,2 52543  53.2193   5.0777 0001175  89.9219 270.1908 15.08840451118768,6917.879,95.438,540.557,538.931,0.0
52543.0,STARLINK-3926,PAYLOAD,2024-07-04 21:42:53,15.08841202,9.98e-05,53.2172,0.0181,90.1913,269.9193,0.00017614,2.517e-05,0.0,0 STARLINK-3926,1 52543U 22051L   24186.90478785  .00002517  00000-0  17614-3 0  9995,2 52543  53.2172   0.0181 0000998  90.1913 269.9193 15.08841202118932,6917.877,95.437,540.432,539.051,0.0
52543.0,STARLINK-3926,PAYLOAD,2024-07-05 04:04:25,15.08851563,0.0001075,53.2188,358.8306,92.4487,267.6628,0.00030706,4.604e-05,0.0,0 STARLINK-3926,1 52543U 22051L   24187.16974309  .00004604  00000-0  30706-3 0  9993,2 52543  53.2188 358.8306 0001075  92.4487 267.6628 15.08851563119042,6917.845,95.437,540.454,538.966,0.0
52543.0,STARLINK-3926,PAYLOAD,2024-07-05 12:01:22,15.08831175,0.0001067,53.2189,357.3451,92.7688,267.3426,-2.2727e-05,-6.49e-06,0.0,0 STARLINK-3926,1 52543U 22051L   24187.50095200 -.00000649  00000-0 -22727-4 0  9997,2 52543  53.2189 357.3451 0001067  92.7688 267.3426 15.08831175119090,6917.907,95.438,540.511,539.034,0.0
52543.0,STARLINK-3926,PAYLOAD,2024-07-05 18:22:54,15.08828934,0.0001097,53.2175,356.1515,75.075,285.0364,-6.6566e-05,-1.347e-05,0.0,0 STARLINK-3926,1 52543U 22051L   24187.76591391 -.00001347  00000-0 -66566-4 0  9992,2 52543  53.2175 356.1515 0001097  75.0750 285.0364 15.08828934119064,6917.914,95.438,540.538,539.02,0.0
52543.0,STARLINK-3926,PAYLOAD,2024-07-06 10:16:46,15.08830968,0.0001171,53.2191,353.1797,74.0552,286.0569,5.5023e-06,-2e-06,0.0,0 STARLINK-3926,1 52543U 22051L   24188.42831777 -.00000200  00000-0  55023-5 0  9994,2 52543  53.2191 353.1797 0001171  74.0552 286.0569 15.08830968119162,6917.908,95.438,540.583,538.963,0.0
52543.0,STARLINK-3926,PAYLOAD,2024-07-06 18:13:42,15.08846803,0.0001016,53.2185,351.6955,82.827,277.2837,0.00059205,9.149e-05,0.0,0 STARLINK-3926,1 52543U 22051L   24188.75951431  .00009149  00000-0  59205-3 0  9994,2 52543  53.2185 351.6955 0001016  82.8270 277.2837 15.08846803119284,6917.86,95.437,540.427,539.022,0.0
52543.0,STARLINK-3926,PAYLOAD,2024-07-07 10:07:33,15.08853442,0.00019,53.2175,348.7217,78.1763,281.9442,0.00048907,7.507e-05,0.0,0 STARLINK-3926,1 52543U 22051L   24189.42191398  .00007507  00000-0  48907-3 0  9990,2 52543  53.2175 348.7217 0001900  78.1763 281.9442 15.08853442119313,6917.839,95.437,541.019,538.39,0.0
52543.0,STARLINK-3926,PAYLOAD,2024-07-07 19:39:51,15.08854604,9.44e-05,53.218,346.9369,78.9378,281.172,0.000629,9.741e-05,0.0,0 STARLINK-3926,1 52543U 22051L   24189.81935059  .00009741  00000-0  62900-3 0  9994,2 52543  53.2180 346.9369 0000944  78.9378 281.1720 15.08854604119440,6917.836,95.437,540.354,539.048,0.0
52543.0,STARLINK-3926,PAYLOAD,2024-07-08 09:58:20,15.08856897,0.0002228,53.2174,344.2619,80.8423,279.2822,0.00089599,0.00014007,0.0,0 STARLINK-3926,1 52543U 22051L   24190.41551365  .00014007  00000-0  89599-3 0  9990,2 52543  53.2174 344.2619 0002228  80.8423 279.2822 15.08856897119539,6917.829,95.436,541.235,538.152,0.0
52543.0,STARLINK-3926,PAYLOAD,2024-07-08 17:55:15,15.08845726,8.8e-05,53.2177,342.7749,88.173,271.9363,0.0004893,7.509e-05,0.0,0 STARLINK-3926,1 52543U 22051L   24190.74671180  .00007509  00000-0  48930-3 0  9997,2 52543  53.2177 342.7749 0000880  88.1730 271.9363 15.08845726119586,6917.863,95.437,540.337,539.119,0.0
52543.0,STARLINK-3926,PAYLOAD,2024-07-09 09:49:07,15.0883647,9.29e-05,53.2182,339.8012,88.1524,271.9574,8.5782e-05,1.078e-05,0.0,0 STARLINK-3926,1 52543U 22051L   24191.40911272  .00001078  00000-0  85782-4 0  9992,2 52543  53.2182 339.8012 0000929  88.1524 271.9574 15.08836470119688,6917.891,95.438,540.399,539.114,0.0
52543.0,STARLINK-3926,PAYLOAD,2024-07-09 14:35:16,15.08841098,9.91e-05,53.2183,338.9092,86.7727,273.3378,0.00039268,5.967e-05,0.0,0 STARLINK-3926,1 52543U 22051L   24191.60783314  .00005967  00000-0  39268-3 0  9996,2 52543  53.2183 338.9092 0000991  86.7727 273.3378 15.08841098119641,6917.877,95.437,540.428,539.056,0.0
